AEROCUBE 5C             
1 40965U 15058B   26068.71197411  .00004804  00000+0  42791-3 0  9997
2 40965  64.7674 211.9094 0130672 102.4860 259.0908 14.90857126350820
STARLINK-1551           
1 46075U 20055BA  26068.48839804 -.00000715  00000+0 -29092-4 0  9990
2 46075  53.0548  97.5217 0001346  93.4090 266.7054 15.06398019309272
