[{"OBJECT_NAME":"AEROCUBE 5C","OBJECT_ID":"2015-058B","EPOCH":"2026-03-09T17:05:14.563104","MEAN_MOTION":14.90857126,"ECCENTRICITY":0.01306722,"INCLINATION":64.7674,"RA_OF_ASC_NODE":211.9094,"ARG_OF_PERICENTER":102.486,"MEAN_ANOMALY":259.0908,"EPHEMERIS_TYPE":0,"CLASSIFICATION_TYPE":"U","NORAD_CAT_ID":40965,"ELEMENT_SET_NO":999,"REV_AT_EPOCH":35082,"BSTAR":0.0004279104,"MEAN_MOTION_DOT":4.804e-5,"MEAN_MOTION_DDOT":0},{"OBJECT_NAME":"STARLINK-1551","OBJECT_ID":"2020-055BA","EPOCH":"2026-03-09T11:43:17.590656","MEAN_MOTION":15.06398019,"ECCENTRICITY":0.00013466,"INCLINATION":53.0548,"RA_OF_ASC_NODE":97.5217,"ARG_OF_PERICENTER":93.409,"MEAN_ANOMALY":266.7054,"EPHEMERIS_TYPE":0,"CLASSIFICATION_TYPE":"U","NORAD_CAT_ID":46075,"ELEMENT_SET_NO":999,"REV_AT_EPOCH":30927,"BSTAR":-2.9092334e-5,"MEAN_MOTION_DOT":-7.15e-6,"MEAN_MOTION_DDOT":0}]
